[{"OBJECT_NAME":"INTELSAT 5 (IS-5)","OBJECT_ID":"1997-046A","EPOCH":"2023-04-27T15:12:48.324096","MEAN_MOTION":1.00273206,"ECCENTRICITY":0.0002202,"INCLINATION":7.9022,"RA_OF_ASC_NODE":58.7818,"ARG_OF_PERICENTER":330.7542,"MEAN_ANOMALY":220.1755,"EPHEMERIS_TYPE":0,"CLASSIFICATION_TYPE":"U","NORAD_CAT_ID":24916,"ELEMENT_SET_NO":999,"REV_AT_EPOCH":9411,"BSTAR":0,"MEAN_MOTION_DOT":-6.1e-7,"MEAN_MOTION_DDOT":0},{"OBJECT_NAME":"AMC-3 (GE-3)","OBJECT_ID":"1997-050A","EPOCH":"2023-04-27T02:54:23.647392","MEAN_MOTION":1.00272314,"ECCENTRICITY":0.0003073,"INCLINATION":5.3159,"RA_OF_ASC_NODE":76.4419,"ARG_OF_PERICENTER":316.056,"MEAN_ANOMALY":153.9438,"EPHEMERIS_TYPE":0,"CLASSIFICATION_TYPE":"U","NORAD_CAT_ID":24936,"ELEMENT_SET_NO":999,"REV_AT_EPOCH":9394,"BSTAR":0,"MEAN_MOTION_DOT":-2.6e-6,"MEAN_MOTION_DDOT":0},{"OBJECT_NAME":"USA 134","OBJECT_ID":"1997-065A","EPOCH":"2023-04-26T10:03:56.300832","MEAN_MOTION":1.00272417,"ECCENTRICITY":0.0004854,"INCLINATION":11.418,"RA_OF_ASC_NODE":29.5389,"ARG_OF_PERICENTER":358.9744,"MEAN_ANOMALY":224.4554,"EPHEMERIS_TYPE":0,"CLASSIFICATION_TYPE":"U","NORAD_CAT_ID":25019,"ELEMENT_SET_NO":999,"REV_AT_EPOCH":2144,"BSTAR":0,"MEAN_MOTION_DOT":-6.2e-7,"MEAN_MOTION_DDOT":0},{"OBJECT_NAME":"ASTRA 1G","OBJECT_ID":"1997-076A","EPOCH":"2023-04-26T15:41:05.332416","MEAN_MOTION":1.00271004,"ECCENTRICITY":0.000414,"INCLINATION":6.9653,"RA_OF_ASC_NODE":65.7911,"ARG_OF_PERICENTER":323.9857,"MEAN_ANOMALY":79.2694,"EPHEMERIS_TYPE":0,"CLASSIFICATION_TYPE":"U","NORAD_CAT_ID":25071,"ELEMENT_SET_NO":999,"REV_AT_EPOCH":9300,"BSTAR":0,"MEAN_MOTION_DOT":1.14e-6,"MEAN_MOTION_DDOT":0},{"OBJECT_NAME":"INMARSAT 3-F5","OBJECT_ID":"1998-006B","EPOCH":"2023-04-27T10:35:14.342208","MEAN_MOTION":1.00273066,"ECCENTRICITY":0.0004887,"INCLINATION":7.1042,"RA_OF_ASC_NODE":63.4953,"ARG_OF_PERICENTER":330.7088,"MEAN_ANOMALY":285.7865,"EPHEMERIS_TYPE":0,"CLASSIFICATION_TYPE":"U","NORAD_CAT_ID":25153,"ELEMENT_SET_NO":999,"REV_AT_EPOCH":9238,"BSTAR":0,"MEAN_MOTION_DOT":-2.88e-6,"MEAN_MOTION_DDOT":0},{"OBJECT_NAME":"UFO 8 (USA 138)","OBJECT_ID":"1998-016A","EPOCH":"2023-04-26T11:06:47.337696","MEAN_MOTION":1.0038941,"ECCENTRICITY":7.07e-5,"INCLINATION":9.7728,"RA_OF_ASC_NODE":28.6055,"ARG_OF_PERICENTER":27.0099,"MEAN_ANOMALY":205.4504,"EPHEMERIS_TYPE":0,"CLASSIFICATION_TYPE":"U","NORAD_CAT_ID":25258,"ELEMENT_SET_NO":999,"REV_AT_EPOCH":9234,"BSTAR":0,"MEAN_MOTION_DOT":-2.9e-7,"MEAN_MOTION_DDOT":0},{"OBJECT_NAME":"ASTRA 2A","OBJECT_ID":"1998-050A","EPOCH":"2023-04-27T13:11:02.031648","MEAN_MOTION":1.00274116,"ECCENTRICITY":0.0003225,"INCLINATION":4.1931,"RA_OF_ASC_NODE":82.134,"ARG_OF_PERICENTER":305.8708,"MEAN_ANOMALY":82.2187,"EPHEMERIS_TYPE":0,"CLASSIFICATION_TYPE":"U","NORAD_CAT_ID":25462,"ELEMENT_SET_NO":999,"REV_AT_EPOCH":9024,"BSTAR":0,"MEAN_MOTION_DOT":6.9e-7,"MEAN_MOTION_DDOT":0},{"OBJECT_NAME":"SKYNET 4E","OBJECT_ID":"1999-009B","EPOCH":"2023-04-25T23:03:13.278240","MEAN_MOTION":1.00273624,"ECCENTRICITY":0.0002864,"INCLINATION":11.4079,"RA_OF_ASC_NODE":15.2717,"ARG_OF_PERICENTER":26.3624,"MEAN_ANOMALY":156.6267,"EPHEMERIS_TYPE":0,"CLASSIFICATION_TYPE":"U","NORAD_CAT_ID":25639,"ELEMENT_SET_NO":999,"REV_AT_EPOCH":3987,"BSTAR":0,"MEAN_MOTION_DOT":-3.6e-7,"MEAN_MOTION_DDOT":0},{"OBJECT_NAME":"ABS-6","OBJECT_ID":"1999-053A","EPOCH":"2023-04-27T14:57:50.176224","MEAN_MOTION":1.00271793,"ECCENTRICITY":0.0003161,"INCLINATION":0.0536,"RA_OF_ASC_NODE":94.7155,"ARG_OF_PERICENTER":327.5006,"MEAN_ANOMALY":176.613,"EPHEMERIS_TYPE":0,"CLASSIFICATION_TYPE":"U","NORAD_CAT_ID":25924,"ELEMENT_SET_NO":999,"REV_AT_EPOCH":8634,"BSTAR":0,"MEAN_MOTION_DOT":-1.2e-6,"MEAN_MOTION_DDOT":0},{"OBJECT_NAME":"UFO 10 (USA 146)","OBJECT_ID":"1999-063A","EPOCH":"2023-04-26T02:23:25.279296","MEAN_MOTION":1.0026954,"ECCENTRICITY":0.0003146,"INCLINATION":9.1016,"RA_OF_ASC_NODE":32.34,"ARG_OF_PERICENTER":35.3833,"MEAN_ANOMALY":159.0286,"EPHEMERIS_TYPE":0,"CLASSIFICATION_TYPE":"U","NORAD_CAT_ID":25967,"ELEMENT_SET_NO":999,"REV_AT_EPOCH":8582,"BSTAR":0,"MEAN_MOTION_DOT":-1.89e-6,"MEAN_MOTION_DDOT":0},{"OBJECT_NAME":"GALAXY 11 (G-11)","OBJECT_ID":"1999-071A","EPOCH":"2023-04-27T12:27:58.886784","MEAN_MOTION":1.00272167,"ECCENTRICITY":7.94e-5,"INCLINATION":3.8078,"RA_OF_ASC_NODE":84.1047,"ARG_OF_PERICENTER":28.7413,"MEAN_ANOMALY":196.2862,"EPHEMERIS_TYPE":0,"CLASSIFICATION_TYPE":"U","NORAD_CAT_ID":26038,"ELEMENT_SET_NO":999,"REV_AT_EPOCH":8557,"BSTAR":0,"MEAN_MOTION_DOT":-1.62e-6,"MEAN_MOTION_DDOT":0},{"OBJECT_NAME":"USA 148","OBJECT_ID":"2000-001A","EPOCH":"2023-04-26T15:26:32.566272","MEAN_MOTION":1.00275013,"ECCENTRICITY":0.0001217,"INCLINATION":10.0382,"RA_OF_ASC_NODE":40.4835,"ARG_OF_PERICENTER":297.9454,"MEAN_ANOMALY":287.9553,"EPHEMERIS_TYPE":0,"CLASSIFICATION_TYPE":"U","NORAD_CAT_ID":26052,"ELEMENT_SET_NO":999,"REV_AT_EPOCH":2145,"BSTAR":0,"MEAN_MOTION_DOT":3.9e-7,"MEAN_MOTION_DDOT":0},{"OBJECT_NAME":"ASIASTAR","OBJECT_ID":"2000-016A","EPOCH":"2023-04-26T20:42:12.616992","MEAN_MOTION":1.0027505,"ECCENTRICITY":0.0004431,"INCLINATION":6.4175,"RA_OF_ASC_NODE":69.3495,"ARG_OF_PERICENTER":323.1745,"MEAN_ANOMALY":237.6196,"EPHEMERIS_TYPE":0,"CLASSIFICATION_TYPE":"U","NORAD_CAT_ID":26107,"ELEMENT_SET_NO":999,"REV_AT_EPOCH":8441,"BSTAR":0,"MEAN_MOTION_DOT":-3.34e-6,"MEAN_MOTION_DDOT":0},{"OBJECT_NAME":"USA 149 (DSP 20)","OBJECT_ID":"2000-024A","EPOCH":"2023-04-26T15:15:16.716096","MEAN_MOTION":1.00283408,"ECCENTRICITY":0.0001336,"INCLINATION":12.3114,"RA_OF_ASC_NODE":19.492,"ARG_OF_PERICENTER":224.9728,"MEAN_ANOMALY":33.3463,"EPHEMERIS_TYPE":0,"CLASSIFICATION_TYPE":"U","NORAD_CAT_ID":26356,"ELEMENT_SET_NO":999,"REV_AT_EPOCH":2140,"BSTAR":0,"MEAN_MOTION_DOT":9.6e-7,"MEAN_MOTION_DDOT":0},{"OBJECT_NAME":"TDRS 8","OBJECT_ID":"2000-034A","EPOCH":"2023-04-26T21:48:40.411584","MEAN_MOTION":1.00271841,"ECCENTRICITY":0.0023831,"INCLINATION":10.8657,"RA_OF_ASC_NODE":40.3596,"ARG_OF_PERICENTER":342.3675,"MEAN_ANOMALY":248.4301,"EPHEMERIS_TYPE":0,"CLASSIFICATION_TYPE":"U","NORAD_CAT_ID":26388,"ELEMENT_SET_NO":999,"REV_AT_EPOCH":8367,"BSTAR":0,"MEAN_MOTION_DOT":-2.34e-6,"MEAN_MOTION_DDOT":0},{"OBJECT_NAME":"INTELSAT 9 (IS-9)","OBJECT_ID":"2000-043A","EPOCH":"2023-04-27T05:03:09.211392","MEAN_MOTION":1.00271924,"ECCENTRICITY":0.0002458,"INCLINATION":7.8865,"RA_OF_ASC_NODE":58.9707,"ARG_OF_PERICENTER":332.8012,"MEAN_ANOMALY":208.9534,"EPHEMERIS_TYPE":0,"CLASSIFICATION_TYPE":"U","NORAD_CAT_ID":26451,"ELEMENT_SET_NO":999,"REV_AT_EPOCH":8334,"BSTAR":0,"MEAN_MOTION_DOT":-2.87e-6,"MEAN_MOTION_DDOT":0},{"OBJECT_NAME":"NSS-11 (AAP-1)","OBJECT_ID":"2000-059A","EPOCH":"2023-04-26T17:06:24.564384","MEAN_MOTION":1.00270845,"ECCENTRICITY":0.0002323,"INCLINATION":0.0406,"RA_OF_ASC_NODE":70.148,"ARG_OF_PERICENTER":322.1967,"MEAN_ANOMALY":254.6891,"EPHEMERIS_TYPE":0,"CLASSIFICATION_TYPE":"U","NORAD_CAT_ID":26554,"ELEMENT_SET_NO":999,"REV_AT_EPOCH":2978,"BSTAR":0,"MEAN_MOTION_DOT":2.3e-7,"MEAN_MOTION_DDOT":0}]
