INTELSAT 5 (IS-5)       
1 24916U 97046A   23117.63389264 -.00000061  00000+0  00000+0 0  9999
2 24916   7.9022  58.7818 0002202 330.7542 220.1755  1.00273206 94119
AMC-3 (GE-3)            
1 24936U 97050A   23117.12110703 -.00000260  00000+0  00000+0 0  9991
2 24936   5.3159  76.4419 0003073 316.0560 153.9438  1.00272314 93942
USA 134                 
1 25019U 97065A   23116.41940163 -.00000062  00000+0  00000+0 0  9992
2 25019  11.4180  29.5389 0004854 358.9744 224.4554  1.00272417 21442
ASTRA 1G                
1 25071U 97076A   23116.65353394  .00000114  00000+0  00000+0 0  9999
2 25071   6.9653  65.7911 0004140 323.9857  79.2694  1.00271004 93005
INMARSAT 3-F5           
1 25153U 98006B   23117.44113822 -.00000288  00000+0  00000+0 0  9995
2 25153   7.1042  63.4953 0004887 330.7088 285.7865  1.00273066 92386
UFO 8 (USA 138)         
1 25258U 98016A   23116.46304789 -.00000029  00000+0  00000+0 0  9990
2 25258   9.7728  28.6055 0000707  27.0099 205.4504  1.00389410 92348
ASTRA 2A                
1 25462U 98050A   23117.54932907  .00000069  00000+0  00000+0 0  9997
2 25462   4.1931  82.1340 0003225 305.8708  82.2187  1.00274116 90245
SKYNET 4E               
1 25639U 99009B   23115.96057035 -.00000036  00000+0  00000+0 0  9997
2 25639  11.4079  15.2717 0002864  26.3624 156.6267  1.00273624 39870
ABS-6                   
1 25924U 99053A   23117.62349741 -.00000120  00000+0  00000+0 0  9990
2 25924   0.0536  94.7155 0003161 327.5006 176.6130  1.00271793 86348
UFO 10 (USA 146)        
1 25967U 99063A   23116.09959814 -.00000189  00000+0  00000+0 0  9991
2 25967   9.1016  32.3400 0003146  35.3833 159.0286  1.00269540 85820
GALAXY 11 (G-11)        
1 26038U 99071A   23117.51943156 -.00000162  00000+0  00000+0 0  9991
2 26038   3.8078  84.1047 0000794  28.7413 196.2862  1.00272167 85571
USA 148                 
1 26052U 00001A   23116.64343248  .00000039  00000+0  00000+0 0  9993
2 26052  10.0382  40.4835 0001217 297.9454 287.9553  1.00275013 21456
ASIASTAR                
1 26107U 00016A   23116.86264603 -.00000334  00000+0  00000+0 0  9990
2 26107   6.4175  69.3495 0004431 323.1745 237.6196  1.00275050 84415
USA 149 (DSP 20)        
1 26356U 00024A   23116.63561014  .00000096  00000+0  00000+0 0  9990
2 26356  12.3114  19.4920 0001336 224.9728  33.3463  1.00283408 21403
TDRS 8                  
1 26388U 00034A   23116.90880106 -.00000234  00000+0  00000+0 0  9997
2 26388  10.8657  40.3596 0023831 342.3675 248.4301  1.00271841 83670
INTELSAT 9 (IS-9)       
1 26451U 00043A   23117.21052328 -.00000287  00000+0  00000+0 0  9998
2 26451   7.8865  58.9707 0002458 332.8012 208.9534  1.00271924 83343
NSS-11 (AAP-1)          
1 26554U 00059A   23116.71278431  .00000023  00000+0  00000+0 0  9995
2 26554   0.0406  70.1480 0002323 322.1967 254.6891  1.00270845 29782
